{"fetched_at":"2026-07-16T17:46:57.236Z","source":"https://celestrak.org/NORAD/elements/gp.php?NAME=SENTINEL&FORMAT=JSON","constellation":"sentinel-5p","records":[{"OBJECT_NAME":"SENTINEL-5P","OBJECT_ID":"2017-064A","EPOCH":"2026-07-16T05:48:34.424640","CLASSIFICATION_TYPE":"U","MEAN_MOTION":14.19523382,"ECCENTRICITY":0.00011455,"INCLINATION":98.7929,"RA_OF_ASC_NODE":139.1678,"ARG_OF_PERICENTER":93.2479,"MEAN_ANOMALY":266.8828,"EPHEMERIS_TYPE":0,"NORAD_CAT_ID":42969,"ELEMENT_SET_NO":999,"REV_AT_EPOCH":45368,"BSTAR":0.000025543993,"MEAN_MOTION_DOT":1e-7,"MEAN_MOTION_DDOT":0}]}
